{
  "type": "FeatureCollection",
  "features": [
    {
      "type": "Feature",
      "properties": {
        "norad_id": 34340,
        "name": "COSMOS 2251 DEB",
        "group": "cosmos-2251-debris",
        "lat": -25.61440452225014,
        "lon": 124.90956586209373,
        "alt_km": 1169.4516470226408,
        "timestamp": "2025-12-19T06:59:44.300767+00:00",
        "meta_object_name": "COSMOS 2251 DEB",
        "meta_object_id": "1993-036PN",
        "meta_epoch": "2025-12-18T23:22:59.925216",
        "meta_mean_motion": 13.79595736,
        "meta_eccentricity": 0.02834236,
        "meta_inclination": 74.0787,
        "meta_ra_of_asc_node": 297.5738,
        "meta_arg_of_pericenter": 43.8914,
        "meta_mean_anomaly": 27.0831,
        "meta_ephemeris_type": 0,
        "meta_classification_type": "U",
        "meta_norad_cat_id": 34340,
        "meta_element_set_no": 999,
        "meta_rev_at_epoch": 84354,
        "meta_bstar": 0.0012922339,
        "meta_mean_motion_dot": 1.78e-05,
        "meta_mean_motion_ddot": 0,
        "tle_line1": "1 34340U 93036PN  25352.97430469  .00001780  00000+0  12922-2 0  9997",
        "tle_line2": "2 34340  74.0787 297.5738 0283423  43.8914  27.0831 13.79595736843541"
      },
      "geometry": {
        "type": "Point",
        "coordinates": [
          124.90956586209373,
          -25.61440452225014
        ]
      }
    },
    {
      "type": "Feature",
      "properties": {
        "norad_id": 34343,
        "name": "COSMOS 2251 DEB",
        "group": "cosmos-2251-debris",
        "lat": -54.00121849114088,
        "lon": -79.92075428368017,
        "alt_km": 675.5207382942481,
        "timestamp": "2025-12-19T06:59:44.300777+00:00",
        "meta_object_name": "COSMOS 2251 DEB",
        "meta_object_id": "1993-036PR",
        "meta_epoch": "2025-12-18T15:45:35.304768",
        "meta_mean_motion": 14.69529316,
        "meta_eccentricity": 0.00238905,
        "meta_inclination": 74.0206,
        "meta_ra_of_asc_node": 78.0802,
        "meta_arg_of_pericenter": 350.7916,
        "meta_mean_anomaly": 129.6595,
        "meta_ephemeris_type": 0,
        "meta_classification_type": "U",
        "meta_norad_cat_id": 34343,
        "meta_element_set_no": 999,
        "meta_rev_at_epoch": 88817,
        "meta_bstar": 0.00094976164,
        "meta_mean_motion_dot": 5.632e-05,
        "meta_mean_motion_ddot": 0,
        "tle_line1": "1 34343U 93036PR  25352.65665862  .00005632  00000+0  94976-3 0  9992",
        "tle_line2": "2 34343  74.0206  78.0802 0023890 350.7916 129.6595 14.69529316888171"
      },
      "geometry": {
        "type": "Point",
        "coordinates": [
          -79.92075428368017,
          -54.00121849114088
        ]
      }
    },
    {
      "type": "Feature",
      "properties": {
        "norad_id": 34344,
        "name": "COSMOS 2251 DEB",
        "group": "cosmos-2251-debris",
        "lat": 12.749892640416759,
        "lon": -85.07516823999823,
        "alt_km": 884.0467203028938,
        "timestamp": "2025-12-19T06:59:44.300787+00:00",
        "meta_object_name": "COSMOS 2251 DEB",
        "meta_object_id": "1993-036PS",
        "meta_epoch": "2025-12-18T17:13:37.907904",
        "meta_mean_motion": 14.16454578,
        "meta_eccentricity": 0.01562401,
        "meta_inclination": 73.9796,
        "meta_ra_of_asc_node": 99.676,
        "meta_arg_of_pericenter": 282.6089,
        "meta_mean_anomaly": 201.4311,
        "meta_ephemeris_type": 0,
        "meta_classification_type": "U",
        "meta_norad_cat_id": 34344,
        "meta_element_set_no": 999,
        "meta_rev_at_epoch": 86181,
        "meta_bstar": 0.0015826322,
        "meta_mean_motion_dot": 3.521e-05,
        "meta_mean_motion_ddot": 0,
        "tle_line1": "1 34344U 93036PS  25352.71779986  .00003521  00000+0  15826-2 0  9994",
        "tle_line2": "2 34344  73.9796  99.6760 0156240 282.6089 201.4311 14.16454578861812"
      },
      "geometry": {
        "type": "Point",
        "coordinates": [
          -85.07516823999823,
          12.749892640416759
        ]
      }
    },
    {
      "type": "Feature",
      "properties": {
        "norad_id": 34346,
        "name": "COSMOS 2251 DEB",
        "group": "cosmos-2251-debris",
        "lat": -63.14455392119852,
        "lon": 155.4088574364446,
        "alt_km": 995.928238227184,
        "timestamp": "2025-12-19T06:59:44.300798+00:00",
        "meta_object_name": "COSMOS 2251 DEB",
        "meta_object_id": "1993-036PU",
        "meta_epoch": "2025-12-18T21:33:18.959040",
        "meta_mean_motion": 13.99711117,
        "meta_eccentricity": 0.02061809,
        "meta_inclination": 73.9946,
        "meta_ra_of_asc_node": 301.5601,
        "meta_arg_of_pericenter": 119.0026,
        "meta_mean_anomaly": 305.9706,
        "meta_ephemeris_type": 0,
        "meta_classification_type": "U",
        "meta_norad_cat_id": 34346,
        "meta_element_set_no": 999,
        "meta_rev_at_epoch": 85496,
        "meta_bstar": 0.00077636968,
        "meta_mean_motion_dot": 1.342e-05,
        "meta_mean_motion_ddot": 0,
        "tle_line1": "1 34346U 93036PU  25352.89813610  .00001342  00000+0  77637-3 0  9996",
        "tle_line2": "2 34346  73.9946 301.5601 0206180 119.0026 305.9706 13.99711117854964"
      },
      "geometry": {
        "type": "Point",
        "coordinates": [
          155.4088574364446,
          -63.14455392119852
        ]
      }
    },
    {
      "type": "Feature",
      "properties": {
        "norad_id": 34383,
        "name": "COSMOS 2251 DEB",
        "group": "cosmos-2251-debris",
        "lat": 32.07776599844191,
        "lon": 93.8356911362085,
        "alt_km": 535.771583682339,
        "timestamp": "2025-12-19T06:59:44.300808+00:00",
        "meta_object_name": "COSMOS 2251 DEB",
        "meta_object_id": "1993-036PY",
        "meta_epoch": "2025-12-18T21:06:37.624896",
        "meta_mean_motion": 15.09517186,
        "meta_eccentricity": 0.0002904,
        "meta_inclination": 74.0217,
        "meta_ra_of_asc_node": 285.0313,
        "meta_arg_of_pericenter": 47.1884,
        "meta_mean_anomaly": 21.8108,
        "meta_ephemeris_type": 0,
        "meta_classification_type": "U",
        "meta_norad_cat_id": 34383,
        "meta_element_set_no": 999,
        "meta_rev_at_epoch": 89206,
        "meta_bstar": 0.0022194268,
        "meta_mean_motion_dot": 0.0003574,
        "meta_mean_motion_ddot": 0,
        "tle_line1": "1 34383U 93036PY  25352.87960214  .00035740  00000+0  22194-2 0  9994",
        "tle_line2": "2 34383  74.0217 285.0313 0002904  47.1884  21.8108 15.09517186892061"
      },
      "geometry": {
        "type": "Point",
        "coordinates": [
          93.8356911362085,
          32.07776599844191
        ]
      }
    },
    {
      "type": "Feature",
      "properties": {
        "norad_id": 34387,
        "name": "COSMOS 2251 DEB",
        "group": "cosmos-2251-debris",
        "lat": -18.984781265654416,
        "lon": -165.9322438679701,
        "alt_km": 730.9169678879334,
        "timestamp": "2025-12-19T06:59:44.300885+00:00",
        "meta_object_name": "COSMOS 2251 DEB",
        "meta_object_id": "1993-036QC",
        "meta_epoch": "2025-12-18T14:45:13.749408",
        "meta_mean_motion": 14.43832865,
        "meta_eccentricity": 0.00388476,
        "meta_inclination": 74.0389,
        "meta_ra_of_asc_node": 200.9758,
        "meta_arg_of_pericenter": 296.8914,
        "meta_mean_anomaly": 126.9828,
        "meta_ephemeris_type": 0,
        "meta_classification_type": "U",
        "meta_norad_cat_id": 34387,
        "meta_element_set_no": 999,
        "meta_rev_at_epoch": 88266,
        "meta_bstar": 0.00022689206,
        "meta_mean_motion_dot": 7.53e-06,
        "meta_mean_motion_ddot": 0,
        "tle_line1": "1 34387U 93036QC  25352.61474247  .00000753  00000+0  22689-3 0  9992",
        "tle_line2": "2 34387  74.0389 200.9758 0038847 296.8914 126.9828 14.43832865882668"
      },
      "geometry": {
        "type": "Point",
        "coordinates": [
          -165.9322438679701,
          -18.984781265654416
        ]
      }
    },
    {
      "type": "Feature",
      "properties": {
        "norad_id": 34388,
        "name": "COSMOS 2251 DEB",
        "group": "cosmos-2251-debris",
        "lat": 73.67815560593733,
        "lon": -46.97208406618101,
        "alt_km": 729.7489566323175,
        "timestamp": "2025-12-19T06:59:44.300898+00:00",
        "meta_object_name": "COSMOS 2251 DEB",
        "meta_object_id": "1993-036QD",
        "meta_epoch": "2025-12-18T15:55:12.491328",
        "meta_mean_motion": 14.49393097,
        "meta_eccentricity": 0.00138701,
        "meta_inclination": 74.0383,
        "meta_ra_of_asc_node": 211.9949,
        "meta_arg_of_pericenter": 259.8763,
        "meta_mean_anomaly": 157.3488,
        "meta_ephemeris_type": 0,
        "meta_classification_type": "U",
        "meta_norad_cat_id": 34388,
        "meta_element_set_no": 999,
        "meta_rev_at_epoch": 88241,
        "meta_bstar": 0.00046565528,
        "meta_mean_motion_dot": 1.755e-05,
        "meta_mean_motion_ddot": 0,
        "tle_line1": "1 34388U 93036QD  25352.66333902  .00001755  00000+0  46566-3 0  9993",
        "tle_line2": "2 34388  74.0383 211.9949 0013870 259.8763 157.3488 14.49393097882415"
      },
      "geometry": {
        "type": "Point",
        "coordinates": [
          -46.97208406618101,
          73.67815560593733
        ]
      }
    }
  ]
}